NAVSTAR 77 (USA 289)    
1 43873U 18109A   24184.28713764 -.00000027  00000+0  00000+0 0  9999
2 43873  55.3025 120.4315 0029196 194.8608 337.0954  2.00556612 40738
